{
  "type": "FeatureCollection",
  "features": [
    {
      "type": "Feature",
      "properties": {
        "norad_id": 30405,
        "name": "FENGYUN 1C DEB",
        "group": "fengyun-1c-debris",
        "lat": -79.42056491828052,
        "lon": -147.614248569554,
        "alt_km": 826.8383769060565,
        "timestamp": "2025-12-20T07:33:51.089225+00:00",
        "meta_object_name": "FENGYUN 1C DEB",
        "meta_object_id": "1999-025ADU",
        "meta_epoch": "2025-12-19T17:36:24.702336",
        "meta_mean_motion": 14.28971431,
        "meta_eccentricity": 0.00511368,
        "meta_inclination": 98.7942,
        "meta_ra_of_asc_node": 87.7784,
        "meta_arg_of_pericenter": 133.9657,
        "meta_mean_anomaly": 19.6856,
        "meta_ephemeris_type": 0,
        "meta_classification_type": "U",
        "meta_norad_cat_id": 30405,
        "meta_element_set_no": 999,
        "meta_rev_at_epoch": 97495,
        "meta_bstar": 0.0011220669,
        "meta_mean_motion_dot": 2.833e-05,
        "meta_mean_motion_ddot": 0,
        "tle_line1": "1 30405U 99025ADU 25353.73361924  .00002833  00000+0  11221-2 0  9994",
        "tle_line2": "2 30405  98.7942  87.7784 0051136 133.9657  19.6856 14.28971431974953"
      },
      "geometry": {
        "type": "Point",
        "coordinates": [
          -147.614248569554,
          -79.42056491828052
        ]
      }
    },
    {
      "type": "Feature",
      "properties": {
        "norad_id": 30406,
        "name": "FENGYUN 1C DEB",
        "group": "fengyun-1c-debris",
        "lat": 50.864719706932156,
        "lon": 74.82450669926504,
        "alt_km": 1210.1460112456525,
        "timestamp": "2025-12-20T07:33:51.089235+00:00",
        "meta_object_name": "FENGYUN 1C DEB",
        "meta_object_id": "1999-025ADV",
        "meta_epoch": "2025-12-19T10:36:39.492000",
        "meta_mean_motion": 13.59238767,
        "meta_eccentricity": 0.0283134,
        "meta_inclination": 98.621,
        "meta_ra_of_asc_node": 243.3105,
        "meta_arg_of_pericenter": 342.5127,
        "meta_mean_anomaly": 194.2074,
        "meta_ephemeris_type": 0,
        "meta_classification_type": "U",
        "meta_norad_cat_id": 30406,
        "meta_element_set_no": 999,
        "meta_rev_at_epoch": 93257,
        "meta_bstar": 0.0016837,
        "meta_mean_motion_dot": 1.577e-05,
        "meta_mean_motion_ddot": 0,
        "tle_line1": "1 30406U 99025ADV 25353.44212375  .00001577  00000+0  16837-2 0  9990",
        "tle_line2": "2 30406  98.6210 243.3105 0283134 342.5127 194.2074 13.59238767932578"
      },
      "geometry": {
        "type": "Point",
        "coordinates": [
          74.82450669926504,
          50.864719706932156
        ]
      }
    },
    {
      "type": "Feature",
      "properties": {
        "norad_id": 30409,
        "name": "FENGYUN 1C DEB",
        "group": "fengyun-1c-debris",
        "lat": 1.2022780545241705,
        "lon": -18.98850038558112,
        "alt_km": 766.9817669294871,
        "timestamp": "2025-12-20T07:33:51.089245+00:00",
        "meta_object_name": "FENGYUN 1C DEB",
        "meta_object_id": "1999-025ADY",
        "meta_epoch": "2025-12-19T23:18:48.363840",
        "meta_mean_motion": 14.03755513,
        "meta_eccentricity": 0.01677038,
        "meta_inclination": 98.4735,
        "meta_ra_of_asc_node": 340.8701,
        "meta_arg_of_pericenter": 345.2506,
        "meta_mean_anomaly": 79.1896,
        "meta_ephemeris_type": 0,
        "meta_classification_type": "U",
        "meta_norad_cat_id": 30409,
        "meta_element_set_no": 999,
        "meta_rev_at_epoch": 96531,
        "meta_bstar": 0.00066171448,
        "meta_mean_motion_dot": 1.139e-05,
        "meta_mean_motion_ddot": 0,
        "tle_line1": "1 30409U 99025ADY 25353.97139310  .00001139  00000+0  66171-3 0  9999",
        "tle_line2": "2 30409  98.4735 340.8701 0167703 345.2506  79.1896 14.03755513965314"
      },
      "geometry": {
        "type": "Point",
        "coordinates": [
          -18.98850038558112,
          1.2022780545241705
        ]
      }
    },
    {
      "type": "Feature",
      "properties": {
        "norad_id": 30411,
        "name": "FENGYUN 1C DEB",
        "group": "fengyun-1c-debris",
        "lat": -27.654854280297446,
        "lon": -90.90980007676241,
        "alt_km": 907.1669660329935,
        "timestamp": "2025-12-20T07:33:51.089255+00:00",
        "meta_object_name": "FENGYUN 1C DEB",
        "meta_object_id": "1999-025AEA",
        "meta_epoch": "2025-12-18T16:27:43.643520",
        "meta_mean_motion": 14.07679607,
        "meta_eccentricity": 0.01231821,
        "meta_inclination": 98.5812,
        "meta_ra_of_asc_node": 263.0036,
        "meta_arg_of_pericenter": 89.8726,
        "meta_mean_anomaly": 271.6559,
        "meta_ephemeris_type": 0,
        "meta_classification_type": "U",
        "meta_norad_cat_id": 30411,
        "meta_element_set_no": 999,
        "meta_rev_at_epoch": 96067,
        "meta_bstar": 0.0014979791,
        "meta_mean_motion_dot": 2.674e-05,
        "meta_mean_motion_ddot": 0,
        "tle_line1": "1 30411U 99025AEA 25352.68592180  .00002674  00000+0  14980-2 0  9992",
        "tle_line2": "2 30411  98.5812 263.0036 0123182  89.8726 271.6559 14.07679607960671"
      },
      "geometry": {
        "type": "Point",
        "coordinates": [
          -90.90980007676241,
          -27.654854280297446
        ]
      }
    },
    {
      "type": "Feature",
      "properties": {
        "norad_id": 30413,
        "name": "FENGYUN 1C DEB",
        "group": "fengyun-1c-debris",
        "lat": -31.0941758636498,
        "lon": -122.45118616351525,
        "alt_km": 810.0405106098742,
        "timestamp": "2025-12-20T07:33:51.089265+00:00",
        "meta_object_name": "FENGYUN 1C DEB",
        "meta_object_id": "1999-025AEC",
        "meta_epoch": "2025-12-19T15:05:05.384256",
        "meta_mean_motion": 14.3260451,
        "meta_eccentricity": 0.0044659,
        "meta_inclination": 102.0629,
        "meta_ra_of_asc_node": 229.1868,
        "meta_arg_of_pericenter": 198.3719,
        "meta_mean_anomaly": 189.9858,
        "meta_ephemeris_type": 0,
        "meta_classification_type": "U",
        "meta_norad_cat_id": 30413,
        "meta_element_set_no": 999,
        "meta_rev_at_epoch": 97238,
        "meta_bstar": 0.0014476,
        "meta_mean_motion_dot": 3.903e-05,
        "meta_mean_motion_ddot": 0,
        "tle_line1": "1 30413U 99025AEC 25353.62853454  .00003903  00000+0  14476-2 0  9999",
        "tle_line2": "2 30413 102.0629 229.1868 0044659 198.3719 189.9858 14.32604510972388"
      },
      "geometry": {
        "type": "Point",
        "coordinates": [
          -122.45118616351525,
          -31.0941758636498
        ]
      }
    },
    {
      "type": "Feature",
      "properties": {
        "norad_id": 30414,
        "name": "FENGYUN 1C DEB",
        "group": "fengyun-1c-debris",
        "lat": 78.3398609356542,
        "lon": 22.744114524200736,
        "alt_km": 755.5402661746148,
        "timestamp": "2025-12-20T07:33:51.089275+00:00",
        "meta_object_name": "FENGYUN 1C DEB",
        "meta_object_id": "1999-025AED",
        "meta_epoch": "2025-12-19T22:44:18.143808",
        "meta_mean_motion": 14.34248159,
        "meta_eccentricity": 0.00581655,
        "meta_inclination": 99.08,
        "meta_ra_of_asc_node": 151.5589,
        "meta_arg_of_pericenter": 168.0857,
        "meta_mean_anomaly": 192.1717,
        "meta_ephemeris_type": 0,
        "meta_classification_type": "U",
        "meta_norad_cat_id": 30414,
        "meta_element_set_no": 999,
        "meta_rev_at_epoch": 97190,
        "meta_bstar": 0.00161765,
        "meta_mean_motion_dot": 4.58e-05,
        "meta_mean_motion_ddot": 0,
        "tle_line1": "1 30414U 99025AED 25353.94743222  .00004580  00000+0  16176-2 0  9997",
        "tle_line2": "2 30414  99.0800 151.5589 0058165 168.0857 192.1717 14.34248159971909"
      },
      "geometry": {
        "type": "Point",
        "coordinates": [
          22.744114524200736,
          78.3398609356542
        ]
      }
    },
    {
      "type": "Feature",
      "properties": {
        "norad_id": 30415,
        "name": "FENGYUN 1C DEB",
        "group": "fengyun-1c-debris",
        "lat": -21.97492634871464,
        "lon": -129.36327092298313,
        "alt_km": 887.0841898605086,
        "timestamp": "2025-12-20T07:33:51.089286+00:00",
        "meta_object_name": "FENGYUN 1C DEB",
        "meta_object_id": "1999-025AEE",
        "meta_epoch": "2025-12-19T10:11:45.140064",
        "meta_mean_motion": 13.68954565,
        "meta_eccentricity": 0.023966,
        "meta_inclination": 99.6456,
        "meta_ra_of_asc_node": 53.6804,
        "meta_arg_of_pericenter": 252.151,
        "meta_mean_anomaly": 246.4978,
        "meta_ephemeris_type": 0,
        "meta_classification_type": "U",
        "meta_norad_cat_id": 30415,
        "meta_element_set_no": 999,
        "meta_rev_at_epoch": 93969,
        "meta_bstar": 0.0011757,
        "meta_mean_motion_dot": 1.194e-05,
        "meta_mean_motion_ddot": 0,
        "tle_line1": "1 30415U 99025AEE 25353.42482801  .00001194  00000+0  11757-2 0  9992",
        "tle_line2": "2 30415  99.6456  53.6804 0239660 252.1510 246.4978 13.68954565939690"
      },
      "geometry": {
        "type": "Point",
        "coordinates": [
          -129.36327092298313,
          -21.97492634871464
        ]
      }
    }
  ]
}